[{"OBJECT_NAME":"STARLINK-4058","OBJECT_ID":"2022-086AA","EPOCH":"2026-03-09T15:52:58.555776","MEAN_MOTION":15.0884115,"ECCENTRICITY":0.00014506,"INCLINATION":53.2184,"RA_OF_ASC_NODE":194.2474,"ARG_OF_PERICENTER":103.2698,"MEAN_ANOMALY":256.8456,"EPHEMERIS_TYPE":0,"CLASSIFICATION_TYPE":"U","NORAD_CAT_ID":53266,"ELEMENT_SET_NO":999,"REV_AT_EPOCH":20106,"BSTAR":-1.5118136e-5,"MEAN_MOTION_DOT":-5.29e-6,"MEAN_MOTION_DDOT":0},{"OBJECT_NAME":"JILIN-01 KUANFU 02B 3","OBJECT_ID":"2024-169C","EPOCH":"2026-03-09T22:06:48.862368","MEAN_MOTION":15.0924242,"ECCENTRICITY":0.00160506,"INCLINATION":97.5557,"RA_OF_ASC_NODE":159.7436,"ARG_OF_PERICENTER":304.8201,"MEAN_ANOMALY":55.1517,"EPHEMERIS_TYPE":0,"CLASSIFICATION_TYPE":"U","NORAD_CAT_ID":61191,"ELEMENT_SET_NO":999,"REV_AT_EPOCH":8085,"BSTAR":0.00039569069,"MEAN_MOTION_DOT":6.253e-5,"MEAN_MOTION_DDOT":0}]
